IRIDIUM 36              
1 24967U 97056C   24172.46629335  .00000553  00000+0  18061-3 0  9990
2 24967  86.3964 324.9163 0002309  92.7236 267.4225 14.36850933400269
IRIDIUM 39              
1 25042U 97069D   24172.60231928  .00000759  00000+0  19854-3 0  9991
2 25042  86.3920   6.0902 0020414  75.0392 285.3070 14.48010147396617
IRIDIUM 38              
1 25043U 97069E   24172.61197794  .00000496  00000+0  15995-3 0  9995
2 25043  86.3964  25.2247 0002056 137.2342 222.9016 14.37301839394006
IRIDIUM 42              
1 25077U 97077A   24172.59916796  .00000476  00000+0  15829-3 0  9993
2 25077  86.3967  30.9542 0001752 100.9228 259.2166 14.35598243389300
IRIDIUM 44              
1 25078U 97077B   24172.62009806  .00000545  00000+0  16888-3 0  9996
2 25078  86.3961  13.8445 0003669 109.8689 250.2905 14.39439474391674
IRIDIUM 45              
1 25104U 97082A   24172.61133715  .00009582  00000+0  53400-3 0  9999
2 25104  86.3751 220.6402 0157019 226.1853 132.6312 15.03438926397378
IRIDIUM 24              
1 25105U 97082B   24172.56525139  .00000621  00000+0  18616-3 0  9994
2 25105  86.3921 233.4405 0011392 180.9256 179.1925 14.41225848391110
IRIDIUM 51              
1 25262U 98018A   24172.55592619  .00016293  00000+0  74171-3 0  9994
2 25262  86.3978 230.4773 0145432 169.5807 190.8506 15.11500835391923
